[{"OBJECT_NAME":"STARLINK-30084","OBJECT_ID":"2023-079C","EPOCH":"2026-03-09T22:00:01.999584","MEAN_MOTION":15.23505566,"ECCENTRICITY":0.00011469,"INCLINATION":43.0023,"RA_OF_ASC_NODE":104.9996,"ARG_OF_PERICENTER":274.1304,"MEAN_ANOMALY":27.2312,"EPHEMERIS_TYPE":0,"CLASSIFICATION_TYPE":"U","NORAD_CAT_ID":56825,"ELEMENT_SET_NO":999,"REV_AT_EPOCH":578,"BSTAR":0.031721463,"MEAN_MOTION_DOT":0.00827712,"MEAN_MOTION_DDOT":0},{"OBJECT_NAME":"RUNNER-1 (TYVAK-1005)","OBJECT_ID":"2023-084X","EPOCH":"2026-03-09T23:04:09.569568","MEAN_MOTION":15.35579757,"ECCENTRICITY":0.0007303,"INCLINATION":97.6067,"RA_OF_ASC_NODE":207.5453,"ARG_OF_PERICENTER":311.3836,"MEAN_ANOMALY":48.6778,"EPHEMERIS_TYPE":0,"CLASSIFICATION_TYPE":"U","NORAD_CAT_ID":56953,"ELEMENT_SET_NO":999,"REV_AT_EPOCH":15236,"BSTAR":0.00038328234,"MEAN_MOTION_DOT":0.0001319,"MEAN_MOTION_DDOT":0}]
